NORAD_CAT_ID,OBJECT_NAME,OBJECT_TYPE,EPOCH,MEAN_MOTION,ECCENTRICITY,INCLINATION,RA_OF_ASC_NODE,ARG_OF_PERICENTER,MEAN_ANOMALY,BSTAR,MEAN_MOTION_DOT,MEAN_MOTION_DDOT,TLE_LINE0,TLE_LINE1,TLE_LINE2,SEMIMAJOR_AXIS,PERIOD,APOGEE,PERIGEE,DECAYED
49133.0,STARLINK-3077,PAYLOAD,2022-12-24 06:49:40,14.98332253,0.000346,69.9992,7.9759,260.5578,99.519,7.7363e-05,8.3e-06,0.0,0 STARLINK-3077,1 49133U 21082D   22358.28449967  .00000830  00000-0  77363-4 0  9993,2 49133  69.9992   7.9759 0003460 260.5578  99.5190 14.98332253 70515,6950.186,96.107,574.456,569.646,0.0
49133.0,STARLINK-3077,PAYLOAD,2022-12-24 18:02:36,14.9834274,0.0003387,69.9991,6.7976,260.8251,99.2525,0.00012566,1.407e-05,0.0,0 STARLINK-3077,1 49133U 21082D   22358.75180976  .00001407  00000-0  12566-3 0  9991,2 49133  69.9991   6.7976 0003387 260.8251  99.2525 14.98342740 70589,6950.153,96.106,574.373,569.664,0.0
49133.0,STARLINK-3077,PAYLOAD,2022-12-25 06:51:41,14.98326503,0.0003071,69.9996,5.4508,259.8711,100.2102,0.00010299,1.136e-05,0.0,0 STARLINK-3077,1 49133U 21082D   22359.28590007  .00001136  00000-0  10299-3 0  9990,2 49133  69.9996   5.4508 0003071 259.8711 100.2102 14.98326503 70662,6950.204000000002,96.107,574.203,569.934,0.0
49133.0,STARLINK-3077,PAYLOAD,2022-12-25 10:03:58,14.98324573,0.0003131,69.9996,5.1142,259.6324,100.4483,6.9873e-05,7.41e-06,0.0,0 STARLINK-3077,1 49133U 21082D   22359.41942234  .00000741  00000-0  69873-4 0  9992,2 49133  69.9996   5.1142 0003131 259.6324 100.4483 14.98324573 70689,6950.21,96.107,574.251,569.899,0.0
49133.0,STARLINK-3077,PAYLOAD,2022-12-26 00:29:09,14.98336642,0.0003162,69.9996,3.5993,260.0084,100.0718,8.1381e-05,8.78e-06,0.0,0 STARLINK-3077,1 49133U 21082D   22360.02025332  .00000878  00000-0  81381-4 0  9991,2 49133  69.9996   3.5993 0003162 260.0084 100.0718 14.98336642 70775,6950.172,96.107,574.235,569.84,0.0
49133.0,STARLINK-3077,PAYLOAD,2022-12-26 06:53:42,14.9833309,0.0003231,69.9994,2.9259,260.758,99.3214,-6.7603e-06,-1.74e-06,0.0,0 STARLINK-3077,1 49133U 21082D   22360.28729765 -.00000174  00000-0 -67603-5 0  9993,2 49133  69.9994   2.9259 0003231 260.7580  99.3214 14.98333090 70816,6950.183000000001,96.107,574.294,569.803,0.0
49133.0,STARLINK-3077,PAYLOAD,2022-12-26 18:06:39,14.98328284,0.0003006,70.0,1.7475,260.1735,99.9085,-6.1788e-05,-8.3e-06,0.0,0 STARLINK-3077,1 49133U 21082D   22360.75462058 -.00000830  00000-0 -61788-4 0  9990,2 49133  70.0000   1.7475 0003006 260.1735  99.9085 14.98328284 70888,6950.198,96.107,574.1519999999998,569.974,0.0
49133.0,STARLINK-3077,PAYLOAD,2022-12-27 10:07:59,14.98334535,0.0003195,69.9995,0.0639,259.8643,100.2156,0.00012633,1.415e-05,0.0,0 STARLINK-3077,1 49133U 21082D   22361.42221415  .00001415  00000-0  12633-3 0  9997,2 49133  69.9995   0.0639 0003195 259.8643 100.2156 14.98334535 70986,6950.179,96.107,574.264,569.823,0.0
49133.0,STARLINK-3077,PAYLOAD,2022-12-28 00:33:11,14.98352332,0.0003231,69.9992,358.5493,258.6663,101.4133,-2.0805e-05,-3.41e-06,0.0,0 STARLINK-3077,1 49133U 21082D   22362.02304423 -.00000341  00000-0 -20805-4 0  9995,2 49133  69.9992 358.5493 0003231 258.6663 101.4133 14.98352332 71076,6950.124,96.106,574.234,569.743,0.0
49133.0,STARLINK-3077,PAYLOAD,2022-12-28 22:59:05,14.98301867,0.0003139,69.9989,356.1922,255.6446,104.4364,0.00063245,7.456e-05,0.0,0 STARLINK-3077,1 49133U 21082D   22362.95770049  .00007456  00000-0  63245-3 0  9994,2 49133  69.9989 356.1922 0003139 255.6446 104.4364 14.98301867 71218,6950.28,96.109,574.327,569.9630000000002,0.0
49133.0,STARLINK-3077,PAYLOAD,2022-12-29 16:36:33,14.98332444,0.0003304,69.9993,354.3398,262.6724,97.406,-4.4289e-05,-6.22e-06,0.0,0 STARLINK-3077,1 49133U 21082D   22363.69205492 -.00000622  00000-0 -44289-4 0  9999,2 49133  69.9993 354.3398 0003304 262.6724  97.4060 14.98332444 71322,6950.185,96.107,574.347,569.754,0.0
49133.0,STARLINK-3077,PAYLOAD,2022-12-30 10:14:01,14.98339979,0.0003076,69.9999,352.4887,260.3438,99.7374,0.00010466,1.156e-05,0.0,0 STARLINK-3077,1 49133U 21082D   22364.42640524  .00001156  00000-0  10466-3 0  9990,2 49133  69.9999 352.4887 0003076 260.3438  99.7374 14.98339979 71438,6950.1619999999975,96.106,574.165,569.889,0.0
49133.0,STARLINK-3077,PAYLOAD,2022-12-31 10:16:02,14.98337058,0.0003085,70.0012,349.9644,260.0985,99.9826,0.00021057,2.421e-05,0.0,0 STARLINK-3077,1 49133U 21082D   22365.42780386  .00002421  00000-0  21057-3 0  9996,2 49133  70.0012 349.9644 0003085 260.0985  99.9826 14.98337058 71589,6950.170999999999,96.107,574.18,569.8919999999998,0.0
49133.0,STARLINK-3077,PAYLOAD,2022-12-31 16:40:34,14.98336928,0.0003054,70.0011,349.2911,260.3659,99.7155,8.9512e-05,9.75e-06,0.0,0 STARLINK-3077,1 49133U 21082D   22365.69484303  .00000975  00000-0  89512-4 0  9998,2 49133  70.0011 349.2911 0003054 260.3659  99.7155 14.98336928 71628,6950.170999999999,96.107,574.159,569.914,0.0
49133.0,STARLINK-3077,PAYLOAD,2023-01-01 05:29:39,14.98329466,0.0002968,70.0012,347.9446,260.1302,99.9522,-8.964799999999999e-05,-1.162e-05,0.0,0 STARLINK-3077,1 49133U 21082D   23001.22892607 -.00001162  00000-0 -89648-4 0  9996,2 49133  70.0012 347.9446 0002968 260.1302  99.9522 14.98329466 71701,6950.195,96.107,574.122,569.997,0.0
49133.0,STARLINK-3077,PAYLOAD,2023-01-01 08:41:55,14.98328231,0.0002951,70.0,347.6077,258.16700000000003,101.9158,-9.674e-06,-2.08e-06,0.0,0 STARLINK-3077,1 49133U 21082D   23001.36245062 -.00000208  00000-0 -96740-5 0  9990,2 49133  70.0000 347.6077 0002951 258.1670 101.9158 14.98328231 71722,6950.198,96.107,574.114,570.012,0.0
49133.0,STARLINK-3077,PAYLOAD,2023-01-01 16:42:36,14.98321411,0.0002959,69.9999,346.7663,260.8364,99.246,-0.00017919,-2.23e-05,0.0,0 STARLINK-3077,1 49133U 21082D   23001.69625985 -.00002230  00000-0 -17919-3 0  9998,2 49133  69.9999 346.7663 0002959 260.8364  99.2460 14.98321411 71778,6950.219,96.108,574.141,570.028,0.0
49133.0,STARLINK-3077,PAYLOAD,2023-01-01 23:07:08,14.9832418,0.0002988,69.9999,346.0928,261.0836,98.9984,-0.00012291,-1.559e-05,0.0,0 STARLINK-3077,1 49133U 21082D   23001.96329772 -.00001559  00000-0 -12291-3 0  9994,2 49133  69.9999 346.0928 0002988 261.0836  98.9984 14.98324180 71812,6950.2109999999975,96.107,574.153,569.999,0.0
49133.0,STARLINK-3077,PAYLOAD,2023-01-02 08:43:57,14.98327867,0.0003109999999999,69.9999,345.0824,260.2211,99.8597,-5.365100000000001e-05,-7.33e-06,0.0,0 STARLINK-3077,1 49133U 21082D   23002.36385572 -.00000733  00000-0 -53651-4 0  9998,2 49133  69.9999 345.0824 0003110 260.2211  99.8597 14.98327867 71873,6950.199000000001,96.107,574.226,569.903,0.0
49133.0,STARLINK-3077,PAYLOAD,2023-01-02 21:33:01,14.98329101,0.0002819,70.0,343.7359,260.5015,99.5825,9.4942e-05,1.04e-05,0.0,0 STARLINK-3077,1 49133U 21082D   23002.89793502  .00001040  00000-0  94942-4 0  9990,2 49133  70.0000 343.7359 0002819 260.5015  99.5825 14.98329101 71950,6950.196,96.107,574.02,570.101,0.0
49133.0,STARLINK-3077,PAYLOAD,2023-01-03 08:45:58,14.98332374,0.0003069,70.001,342.5575,261.5295,98.5516,0.00042877,5.027e-05,0.0,0 STARLINK-3077,1 49133U 21082D   23003.36525615  .00005027  00000-0  42877-3 0  9999,2 49133  70.0010 342.5575 0003069 261.5295  98.5516 14.98332374 72028,6950.186,96.107,574.184,569.918,0.0
49133.0,STARLINK-3077,PAYLOAD,2023-01-04 02:23:27,14.983331699999995,0.0003023,70.0011,340.7059,260.1989,99.8829,0.00031683,3.69e-05,0.0,0 STARLINK-3077,1 49133U 21082D   23004.09961833  .00003690  00000-0  31683-3 0  9993,2 49133  70.0011 340.7059 0003023 260.1989  99.8829 14.98333170 72139,6950.183000000001,96.107,574.149,569.947,0.0
49133.0,STARLINK-3077,PAYLOAD,2023-01-04 08:47:59,14.98337817,0.0003034,70.0013,340.0324,260.8625,99.2191,0.00032473,3.785e-05,0.0,0 STARLINK-3077,1 49133U 21082D   23004.36665574  .00003785  00000-0  32473-3 0  9999,2 49133  70.0013 340.0324 0003034 260.8625  99.2191 14.98337817 72177,6950.169,96.106,574.1419999999998,569.925,0.0
49133.0,STARLINK-3077,PAYLOAD,2023-01-04 15:12:30,14.98348836,0.0003058,70.0014,339.3590000000001,260.8866,99.1947,0.00053134,6.256e-05,0.0,0 STARLINK-3077,1 49133U 21082D   23004.63369021  .00006256  00000-0  53134-3 0  9990,2 49133  70.0014 339.3590 0003058 260.8866  99.1947 14.98348836 72213,6950.135,96.106,574.125,569.874,0.0
49133.0,STARLINK-3077,PAYLOAD,2023-01-05 04:01:35,14.98345654,0.0003083,70.0015,338.0124,259.7909,100.2902,0.0002799,3.2500000000000004e-05,0.0,0 STARLINK-3077,1 49133U 21082D   23005.16776654  .00003250  00000-0  27990-3 0  9995,2 49133  70.0015 338.0124 0003083 259.7909 100.2902 14.98345654 72294,6950.144,96.106,574.1519999999998,569.867,0.0
49133.0,STARLINK-3077,PAYLOAD,2023-01-05 10:26:07,14.9834601,0.0003136,70.0013,337.3388,259.9685,100.112,0.0002499,2.891e-05,0.0,0 STARLINK-3077,1 49133U 21082D   23005.43480391  .00002891  00000-0  24990-3 0  9992,2 49133  70.0013 337.3388 0003136 259.9685 100.1120 14.98346010 72331,6950.143,96.106,574.188,569.8290000000002,0.0
49133.0,STARLINK-3077,PAYLOAD,2023-01-05 15:14:31,14.9834546,0.0003137,70.0016,336.8342,259.47700000000003,100.6036,0.00049311,5.798e-05,0.0,0 STARLINK-3077,1 49133U 21082D   23005.63508362  .00005798  00000-0  49311-3 0  9996,2 49133  70.0016 336.8342 0003137 259.4770 100.6036 14.98345460 72361,6950.145,96.106,574.19,569.83,0.0
49133.0,STARLINK-3077,PAYLOAD,2023-01-06 08:51:59,14.98337524,0.0003394,70.0013,334.983,261.1745,98.903,-2.9057e-06,-1.28e-06,0.0,0 STARLINK-3077,1 49133U 21082D   23006.36943989 -.00000128  00000-0 -29057-5 0  9996,2 49133  70.0013 334.9830 0003394 261.1745  98.9030 14.98337524 72473,6950.17,96.107,574.394,569.6759999999998,0.0
49133.0,STARLINK-3077,PAYLOAD,2023-01-06 21:41:04,14.98327114,0.0003285,70.0015,333.6364,258.5861,101.493,-0.00021344,-2.639e-05,0.0,0 STARLINK-3077,1 49133U 21082D   23006.90352404 -.00002639  00000-0 -21344-3 0  9990,2 49133  70.0015 333.6364 0003285 258.5861 101.4930 14.98327114 72553,6950.201999999998,96.107,574.35,569.784,0.0
